NORAD_CAT_ID,OBJECT_NAME,OBJECT_TYPE,EPOCH,MEAN_MOTION,ECCENTRICITY,INCLINATION,RA_OF_ASC_NODE,ARG_OF_PERICENTER,MEAN_ANOMALY,BSTAR,MEAN_MOTION_DOT,MEAN_MOTION_DDOT,TLE_LINE0,TLE_LINE1,TLE_LINE2,SEMIMAJOR_AXIS,PERIOD,APOGEE,PERIGEE,DECAYED
56486.0,STARLINK-6201,PAYLOAD,2023-12-20 10:21:31,14.98333114,0.0002728,70.0005,7.2775,264.1766,95.9082,-4.0495e-05,-5.76e-06,0.0,0 STARLINK-6201,1 56486U 23064AQ  23354.43161788 -.00000576  00000-0 -40495-4 0  9995,2 56486  70.0005   7.2775 0002728 264.1766  95.9082 14.98333114 34379,6950.183,96.107,573.944,570.152,0.0
56486.0,STARLINK-6201,PAYLOAD,2023-12-21 03:59:00,14.98329225,0.0002661,70.0005,5.426,262.5042,97.5815,9.0777e-05,9.9e-06,0.0,0 STARLINK-6201,1 56486U 23064AQ  23355.16597639  .00000990  00000-0  90777-4 0  9990,2 56486  70.0005   5.4260 0002661 262.5042  97.5815 14.98329225 34845,6950.195,96.107,573.91,570.211,0.0
56486.0,STARLINK-6201,PAYLOAD,2023-12-21 10:23:32,14.98330962,0.0002501,70.0008,4.7527,256.0797,104.0084,0.00013005,1.459e-05,0.0,0 STARLINK-6201,1 56486U 23064AQ  23355.43301396  .00001459  00000-0  13005-3 0  9992,2 56486  70.0008   4.7527 0002501 256.0797 104.0084 14.98330962 34521,6950.19,96.107,573.793,570.317,0.0
56486.0,STARLINK-6201,PAYLOAD,2023-12-22 04:01:01,14.98329106,0.0002493,70.0024,2.9047,240.8165,119.2745,-1.5426e-05,-2.77e-06,0.0,0 STARLINK-6201,1 56486U 23064AQ  23356.16737934 -.00000277  00000-0 -15426-4 0  9993,2 56486  70.0024   2.9047 0002493 240.8165 119.2745 14.98329106 34997,6950.196,96.107,573.793,570.328,0.0
56486.0,STARLINK-6201,PAYLOAD,2023-12-22 10:25:34,14.98323793,0.0002408,70.0016,2.2289,247.0929,112.9976,-4.0153e-05,-5.72e-06,0.0,0 STARLINK-6201,1 56486U 23064AQ  23356.43442378 -.00000572  00000-0 -40153-4 0  9991,2 56486  70.0016   2.2289 0002408 247.0929 112.9976 14.98323793 34679,6950.212,96.107,573.751,570.403,0.0
56486.0,STARLINK-6201,PAYLOAD,2023-12-23 04:03:02,14.98330116,0.00023,70.0031,0.3806,246.4633,113.6284,-6.5114e-06,-1.71e-06,0.0,0 STARLINK-6201,1 56486U 23064AQ  23357.16877900 -.00000171  00000-0 -65114-5 0  9995,2 56486  70.0031   0.3806 0002300 246.4633 113.6284 14.98330116 35146,6950.193,96.107,573.656,570.459,0.0
56486.0,STARLINK-6201,PAYLOAD,2023-12-23 10:27:34,14.98332636,0.0002564,70.001,359.7029,259.2743,100.8127,-1.5833e-05,-2.82e-06,0.0,0 STARLINK-6201,1 56486U 23064AQ  23357.43581687 -.00000282  00000-0 -15833-4 0  9994,2 56486  70.0010 359.7029 0002564 259.2743 100.8127 14.98332636 34824,6950.185,96.107,573.832,570.268,0.0
56486.0,STARLINK-6201,PAYLOAD,2023-12-24 04:05:03,14.98316278,0.0002388,70.0011,357.8513,253.4135,106.6761,0.00024318,2.809e-05,0.0,0 STARLINK-6201,1 56486U 23064AQ  23358.17017889  .00002809  00000-0  24318-3 0  9996,2 56486  70.0011 357.8513 0002388 253.4135 106.6761 14.98316278 35291,6950.235,96.108,573.76,570.441,0.0
56486.0,STARLINK-6201,PAYLOAD,2023-12-24 10:29:35,14.98327514,0.0002523,70.0009,357.1756,261.025,99.0624,0.0002058,2.363e-05,0.0,0 STARLINK-6201,1 56486U 23064AQ  23358.43721398  .00002363  00000-0  20580-3 0  9994,2 56486  70.0009 357.1756 0002523 261.0250  99.0624 14.98327514 35337,6950.201,96.107,573.819,570.312,0.0
56486.0,STARLINK-6201,PAYLOAD,2023-12-25 08:55:28,14.98326487,0.0002559,70.0008,354.8205,250.839,109.2492,-8.4402e-06,-1.94e-06,0.0,0 STARLINK-6201,1 56486U 23064AQ  23359.37185985 -.00000194  00000-0 -84402-5 0  9991,2 56486  70.0008 354.8205 0002559 250.8390 109.2492 14.98326487 35479,6950.204,96.107,573.847,570.29,0.0
56486.0,STARLINK-6201,PAYLOAD,2023-12-26 04:09:04,14.9833621,0.0002848,70.0009,352.8001,257.5893,102.4948,3.2914e-05,3e-06,0.0,0 STARLINK-6201,1 56486U 23064AQ  23360.17296552  .00000300  00000-0  32914-4 0  9991,2 56486  70.0009 352.8001 0002848 257.5893 102.4948 14.98336210 35594,6950.174,96.107,574.018,570.059,0.0
56486.0,STARLINK-6201,PAYLOAD,2023-12-26 08:57:29,14.98320319,0.0002761,70.001,352.2957,255.5777,104.5076,-0.00013877,-1.748e-05,0.0,0 STARLINK-6201,1 56486U 23064AQ  23360.37326084 -.00001748  00000-0 -13877-3 0  9992,2 56486  70.0010 352.2957 0002761 255.5777 104.5076 14.98320319 35625,6950.223,96.108,574.007,570.169,0.0
56486.0,STARLINK-6201,PAYLOAD,2023-12-27 04:11:06,14.98321453,0.0003063,70.0004,350.2752,270.1976,89.8832,-9.2423e-06,-2.03e-06,0.0,0 STARLINK-6201,1 56486U 23064AQ  23361.17437751 -.00000203  00000-0 -92423-5 0  9996,2 56486  70.0004 350.2752 0003063 270.1976  89.8832 14.98321453 35747,6950.219,96.108,574.213,569.955,0.0
56486.0,STARLINK-6201,PAYLOAD,2023-12-27 08:59:30,14.98326962,0.0002805,70.0007,349.7707,264.5029,95.581,1.2776e-05,5.9e-07,0.0,0 STARLINK-6201,1 56486U 23064AQ  23361.37465383  .00000059  00000-0  12776-4 0  9999,2 56486  70.0007 349.7707 0002805 264.5029  95.5810 14.98326962 35416,6950.202,96.107,574.017,570.118,0.0
56486.0,STARLINK-6201,PAYLOAD,2023-12-28 09:01:30,14.98338706,0.0002959,70.0008,347.246,266.1582,93.9238,-0.00024217,-2.982e-05,0.0,0 STARLINK-6201,1 56486U 23064AQ  23362.37605176 -.00002982  00000-0 -24217-3 0  9997,2 56486  70.0008 347.2460 0002959 266.1582  93.9238 14.98338706 35929,6950.166,96.106,574.088,569.974,0.0
56486.0,STARLINK-6201,PAYLOAD,2023-12-28 21:50:35,14.98327127,0.0002919,70.0007,345.8994,266.3486,93.7339,1.6759e-05,1.07e-06,0.0,0 STARLINK-6201,1 56486U 23064AQ  23362.91013513  .00000107  00000-0  16759-4 0  9993,2 56486  70.0007 345.8994 0002919 266.3486  93.7339 14.98327127 35649,6950.202,96.107,574.096,570.038,0.0
56486.0,STARLINK-6201,PAYLOAD,2023-12-29 02:38:59,14.983267,0.0002887,70.0007,345.3937,266.0697,94.0132,1.6615e-05,1.05e-06,0.0,0 STARLINK-6201,1 56486U 23064AQ  23363.11041583  .00000105  00000-0  16615-4 0  9993,2 56486  70.0007 345.3937 0002887 266.0697  94.0132 14.98326700 36031,6950.203,96.107,574.075,570.062,0.0
56486.0,STARLINK-6201,PAYLOAD,2023-12-29 09:03:31,14.98329599,0.0002861,70.0008,344.7204,265.2791,94.8041,4.9344e-05,4.96e-06,0.0,0 STARLINK-6201,1 56486U 23064AQ  23363.37745354  .00000496  00000-0  49344-4 0  9996,2 56486  70.0008 344.7204 0002861 265.2791  94.8041 14.98329599 35710,6950.194,96.107,574.048,570.071,0.0
56486.0,STARLINK-6201,PAYLOAD,2023-12-30 04:17:08,14.98326877,0.0002676,70.001,342.7008,259.6226,100.4632,6.8829e-05,7.28e-06,0.0,0 STARLINK-6201,1 56486U 23064AQ  23364.17857512  .00000728  00000-0  68829-4 0  9992,2 56486  70.0010 342.7008 0002676 259.6226 100.4632 14.98326877 36196,6950.203,96.107,573.927,570.208,0.0
56486.0,STARLINK-6201,PAYLOAD,2023-12-30 09:05:33,14.98329372,0.0002831,70.001,342.196,262.9274,97.1563,5.1506e-05,5.22e-06,0.0,0 STARLINK-6201,1 56486U 23064AQ  23364.37885423  .00000522  00000-0  51506-4 0  9992,2 56486  70.0010 342.1960 0002831 262.9274  97.1563 14.98329372 35861,6950.195,96.107,574.027,570.092,0.0
56486.0,STARLINK-6201,PAYLOAD,2023-12-31 09:07:34,14.98328343,0.000274,70.0012,339.6714,262.6943,97.3905,7.2633e-06,-6e-08,0.0,0 STARLINK-6201,1 56486U 23064AQ  23365.38025677 -.00000006  00000-0  72633-5 0  9994,2 56486  70.0012 339.6714 0002740 262.6943  97.3905 14.98328343 36376,6950.198,96.107,573.967,570.159,0.0
56486.0,STARLINK-6201,PAYLOAD,2024-01-01 07:33:26,14.98331546,0.0002696,70.0014,337.3162,259.0153,101.0703,1.4777e-05,8.3e-07,0.0,0 STARLINK-6201,1 56486U 23064AQ  24001.31489384  .00000083  00000-0  14777-4 0  9992,2 56486  70.0014 337.3162 0002696 259.0153 101.0703 14.98331546 36157,6950.188,96.107,573.927,570.179,0.0
56486.0,STARLINK-6201,PAYLOAD,2024-01-01 21:58:39,14.9832962,0.0002704,70.0013,335.8009,257.078,103.0077,2.1896e-05,1.68e-06,0.0,0 STARLINK-6201,1 56486U 23064AQ  24001.91573391  .00000168  00000-0  21896-4 0  9994,2 56486  70.0013 335.8009 0002704 257.0780 103.0077 14.98329620 36249,6950.194,96.107,573.938,570.18,0.0
56486.0,STARLINK-6201,PAYLOAD,2024-01-02 04:23:11,14.9832974,0.000264,70.0015,335.1281,256.0334,104.0531,1.5479e-05,9.2e-07,0.0,0 STARLINK-6201,1 56486U 23064AQ  24002.18277400  .00000092  00000-0  15479-4 0  9992,2 56486  70.0015 335.1281 0002640 256.0334 104.0531 14.98329740 36642,6950.194,96.107,573.894,570.224,0.0
56486.0,STARLINK-6201,PAYLOAD,2024-01-02 07:35:27,14.98330952,0.0002661,70.0014,334.7913,256.3624,103.7239,2.1181e-05,1.6e-06,0.0,0 STARLINK-6201,1 56486U 23064AQ  24002.31629299  .00000160  00000-0  21181-4 0  9997,2 56486  70.0014 334.7913 0002661 256.3624 103.7239 14.98330952 36307,6950.19,96.107,573.904,570.206,0.0
56486.0,STARLINK-6201,PAYLOAD,2024-01-02 22:00:40,14.98329222,0.0002588,70.0016,333.2766,254.7788,105.3085,-1.227e-05,-2.39e-06,0.0,0 STARLINK-6201,1 56486U 23064AQ  24002.91713481 -.00000239  00000-0 -12270-4 0  9998,2 56486  70.0016 333.2766 0002588 254.7788 105.3085 14.98329222 36394,6950.195,96.107,573.859,570.262,0.0
56486.0,STARLINK-6201,PAYLOAD,2024-01-03 07:37:28,14.98327472,0.0002631,70.0017,332.2665,255.1293,104.9574,-3.3947e-05,-4.98e-06,0.0,0 STARLINK-6201,1 56486U 23064AQ  24003.31769673 -.00000498  00000-0 -33947-4 0  9998,2 56486  70.0017 332.2665 0002631 255.1293 104.9574 14.98327472 36817,6950.201,96.107,573.894,570.237,0.0
56486.0,STARLINK-6201,PAYLOAD,2024-01-03 22:02:41,14.98332251,0.0002709,70.0014,330.7514,259.72,100.3653,1.7868e-05,1.2e-06,0.0,0 STARLINK-6201,1 56486U 23064AQ  24003.91853216  .00000120  00000-0  17868-4 0  9995,2 56486  70.0014 330.7514 0002709 259.7200 100.3653 14.98332251 36543,6950.186,96.107,573.934,570.168,0.0
56486.0,STARLINK-6201,PAYLOAD,2024-01-04 02:51:05,14.98332422,0.0002701,70.0015,330.2464,258.8051,101.2805,2.0517e-05,1.52e-06,0.0,0 STARLINK-6201,1 56486U 23064AQ  24004.11881162  .00000152  00000-0  20517-4 0  9999,2 56486  70.0015 330.2464 0002701 258.8051 101.2805 14.98332422 36931,6950.185,96.107,573.928,570.173,0.0
56486.0,STARLINK-6201,PAYLOAD,2024-01-04 07:39:29,14.98332671,0.0002693,70.0015,329.7412,258.9796,101.1061,2.3144e-05,1.83e-06,0.0,0 STARLINK-6201,1 56486U 23064AQ  24004.31909109  .00000183  00000-0  23144-4 0  9996,2 56486  70.0015 329.7412 0002693 258.9796 101.1061 14.98332671 36607,6950.185,96.107,573.921,570.178,0.0
